{
  "norad_id": 25933,
  "name": "NAVSTAR 46 (USA 145)",
  "history": [
    {
      "epoch": "2026-03-28T12:44:09.597696Z",
      "apogee_km": 20464.521130235444,
      "perigee_km": 19899.407170083727,
      "latitude_deg": 2.140034402990378,
      "longitude_deg": -76.27828417793297,
      "height_km": 20459.51465603436,
      "semi_major_axis_km": 26560.101150159586,
      "eccentricity": 0.0106384,
      "inclination_deg": 51.5363,
      "raan_deg": 298.9957,
      "arg_perigee_deg": 172.3188,
      "mean_anomaly_deg": 190.6623,
      "mean_motion_rev_day": 2.00566398
    }
  ]
}